{"type": "FeatureCollection", "features": [ {"type": "Feature", "properties": {"norad_id": 31411, "name": "FENGYUN 1C DEB", "group": "fengyun-1c-debris", "lat": 21.122376901828492, "lon": -114.7183182242763, "alt_km": 756.3987709600442, "timestamp": "2025-12-26T17:24:55.001656+00:00", "meta": {"OBJECT_NAME": "FENGYUN 1C DEB", "OBJECT_ID": "1999-025BSX", "EPOCH": "2025-12-21T10:37:47.232192", "MEAN_MOTION": 14.28010304, "ECCENTRICITY": 0.01009094, "INCLINATION": 98.668, "RA_OF_ASC_NODE": 56.6601, "ARG_OF_PERICENTER": 229.1813, "MEAN_ANOMALY": 147.9658, "EPHEMERIS_TYPE": 0, "CLASSIFICATION_TYPE": "U", "NORAD_CAT_ID": 31411, "ELEMENT_SET_NO": 999, "REV_AT_EPOCH": 94604, "BSTAR": 0.00039943349, "MEAN_MOTION_DOT": 1.002e-05, "MEAN_MOTION_DDOT": 0}, "tle": {"line1": "1 31411U 99025BSX 25355.44290778  .00001002  00000+0  39943-3 0  9999", "line2": "2 31411  98.6680  56.6601 0100909 229.1813 147.9658 14.28010304946044"}}, "geometry": {"type": "Point", "coordinates": [-114.7183182242763, 21.122376901828492]}}, {"type": "Feature", "properties": {"norad_id": 31412, "name": "FENGYUN 1C DEB", "group": "fengyun-1c-debris", "lat": -50.72734818970551, "lon": -45.462796623177034, "alt_km": 808.1069464214552, "timestamp": "2025-12-26T17:24:55.001666+00:00", "meta": {"OBJECT_NAME": "FENGYUN 1C DEB", "OBJECT_ID": "1999-025BSY", "EPOCH": "2025-12-25T14:24:19.497888", "MEAN_MOTION": 14.09916522, "ECCENTRICITY": 0.0082622, "INCLINATION": 98.552, "RA_OF_ASC_NODE": 302.8633, "ARG_OF_PERICENTER": 299.2185, "MEAN_ANOMALY": 60.0742, "EPHEMERIS_TYPE": 0, "CLASSIFICATION_TYPE": "U", "NORAD_CAT_ID": 31412, "ELEMENT_SET_NO": 999, "REV_AT_EPOCH": 61173, "BSTAR": 0.0017789, "MEAN_MOTION_DOT": 3.193e-05, "MEAN_MOTION_DDOT": 0}, "tle": {"line1": "1 31412U 99025BSY 25359.60022567  .00003193  00000+0  17789-2 0  9997", "line2": "2 31412  98.5520 302.8633 0082622 299.2185  60.0742 14.09916522611739"}}, "geometry": {"type": "Point", "coordinates": [-45.462796623177034, -50.72734818970551]}}, {"type": "Feature", "properties": {"norad_id": 31415, "name": "FENGYUN 1C DEB", "group": "fengyun-1c-debris", "lat": 50.046074466496506, "lon": 145.9766073879944, "alt_km": 787.620800226573, "timestamp": "2025-12-26T17:24:55.001676+00:00", "meta": {"OBJECT_NAME": "FENGYUN 1C DEB", "OBJECT_ID": "1999-025BTB", "EPOCH": "2025-12-14T14:26:42.789696", "MEAN_MOTION": 14.30617484, "ECCENTRICITY": 0.00641277, "INCLINATION": 99.6387, "RA_OF_ASC_NODE": 300.8477, "ARG_OF_PERICENTER": 69.4394, "MEAN_ANOMALY": 291.365, "EPHEMERIS_TYPE": 0, "CLASSIFICATION_TYPE": "U", "NORAD_CAT_ID": 31415, "ELEMENT_SET_NO": 999, "REV_AT_EPOCH": 62857, "BSTAR": 0.0013058291, "MEAN_MOTION_DOT": 3.436e-05, "MEAN_MOTION_DDOT": 0}, "tle": {"line1": "1 31415U 99025BTB 25348.60188414  .00003436  00000+0  13058-2 0  9997", "line2": "2 31415  99.6387 300.8477 0064127  69.4394 291.3650 14.30617484628574"}}, "geometry": {"type": "Point", "coordinates": [145.9766073879944, 50.046074466496506]}}, {"type": "Feature", "properties": {"norad_id": 31416, "name": "FENGYUN 1C DEB", "group": "fengyun-1c-debris", "lat": -44.816731044495576, "lon": 60.87345980733688, "alt_km": 786.2677738763668, "timestamp": "2025-12-26T17:24:55.001686+00:00", "meta": {"OBJECT_NAME": "FENGYUN 1C DEB", "OBJECT_ID": "1999-025BTC", "EPOCH": "2025-12-22T23:37:14.702880", "MEAN_MOTION": 14.40692205, "ECCENTRICITY": 0.01332513, "INCLINATION": 99.0495, "RA_OF_ASC_NODE": 47.8051, "ARG_OF_PERICENTER": 220.592, "MEAN_ANOMALY": 138.5272, "EPHEMERIS_TYPE": 0, "CLASSIFICATION_TYPE": "U", "NORAD_CAT_ID": 31416, "ELEMENT_SET_NO": 999, "REV_AT_EPOCH": 65667, "BSTAR": 0.00026471718, "MEAN_MOTION_DOT": 8.84e-06, "MEAN_MOTION_DDOT": 0}, "tle": {"line1": "1 31416U 99025BTC 25356.98419795  .00000884  00000+0  26472-3 0  9996", "line2": "2 31416  99.0495  47.8051 0133251 220.5920 138.5272 14.40692205656674"}}, "geometry": {"type": "Point", "coordinates": [60.87345980733688, -44.816731044495576]}}, {"type": "Feature", "properties": {"norad_id": 31420, "name": "FENGYUN 1C DEB", "group": "fengyun-1c-debris", "lat": 17.482100708248687, "lon": 79.46143824068605, "alt_km": 807.1562954767105, "timestamp": "2025-12-26T17:24:55.001695+00:00", "meta": {"OBJECT_NAME": "FENGYUN 1C DEB", "OBJECT_ID": "1999-025BTG", "EPOCH": "2025-12-24T23:03:15.845184", "MEAN_MOTION": 14.40861261, "ECCENTRICITY": 0.01349187, "INCLINATION": 97.5586, "RA_OF_ASC_NODE": 255.5032, "ARG_OF_PERICENTER": 290.3751, "MEAN_ANOMALY": 83.1637, "EPHEMERIS_TYPE": 0, "CLASSIFICATION_TYPE": "U", "NORAD_CAT_ID": 31420, "ELEMENT_SET_NO": 999, "REV_AT_EPOCH": 65170, "BSTAR": 0.00064552807, "MEAN_MOTION_DOT": 2.264e-05, "MEAN_MOTION_DDOT": 0}, "tle": {"line1": "1 31420U 99025BTG 25358.96060006  .00002264  00000+0  64553-3 0  9994", "line2": "2 31420  97.5586 255.5032 0134918 290.3751  83.1637 14.40861261651707"}}, "geometry": {"type": "Point", "coordinates": [79.46143824068605, 17.482100708248687]}}, {"type": "Feature", "properties": {"norad_id": 31422, "name": "FENGYUN 1C DEB", "group": "fengyun-1c-debris", "lat": -55.20352344607847, "lon": 10.122747019850927, "alt_km": 849.8669537102178, "timestamp": "2025-12-26T17:24:55.001705+00:00", "meta": {"OBJECT_NAME": "FENGYUN 1C DEB", "OBJECT_ID": "1999-025BTJ", "EPOCH": "2025-12-25T04:32:49.257600", "MEAN_MOTION": 14.09637595, "ECCENTRICITY": 0.00336758, "INCLINATION": 98.7605, "RA_OF_ASC_NODE": 355.8078, "ARG_OF_PERICENTER": 264.7622, "MEAN_ANOMALY": 167.559, "EPHEMERIS_TYPE": 0, "CLASSIFICATION_TYPE": "U", "NORAD_CAT_ID": 31422, "ELEMENT_SET_NO": 999, "REV_AT_EPOCH": 95837, "BSTAR": 0.00030191894, "MEAN_MOTION_DOT": 4.89e-06, "MEAN_MOTION_DDOT": 0}, "tle": {"line1": "1 31422U 99025BTJ 25359.18945900  .00000489  00000+0  30192-3 0  9995", "line2": "2 31422  98.7605 355.8078 0033675 264.7622 167.5590 14.09637595958372"}}, "geometry": {"type": "Point", "coordinates": [10.122747019850927, -55.20352344607847]}}, {"type": "Feature", "properties": {"norad_id": 31423, "name": "FENGYUN 1C DEB", "group": "fengyun-1c-debris", "lat": 9.683736264787921, "lon": -20.28415240805785, "alt_km": 838.0707424245693, "timestamp": "2025-12-26T17:24:55.001716+00:00", "meta": {"OBJECT_NAME": "FENGYUN 1C DEB", "OBJECT_ID": "1999-025BTK", "EPOCH": "2025-12-25T16:03:20.256480", "MEAN_MOTION": 14.229799, "ECCENTRICITY": 0.00367635, "INCLINATION": 98.5847, "RA_OF_ASC_NODE": 340.1629, "ARG_OF_PERICENTER": 156.3859, "MEAN_ANOMALY": 203.9017, "EPHEMERIS_TYPE": 0, "CLASSIFICATION_TYPE": "U", "NORAD_CAT_ID": 31423, "ELEMENT_SET_NO": 999, "REV_AT_EPOCH": 97152, "BSTAR": 0.00014479863, "MEAN_MOTION_DOT": 2.86e-06, "MEAN_MOTION_DDOT": 0}, "tle": {"line1": "1 31423U 99025BTK 25359.66898445  .00000286  00000+0  14480-3 0  9997", "line2": "2 31423  98.5847 340.1629 0036763 156.3859 203.9017 14.22979900971522"}}, "geometry": {"type": "Point", "coordinates": [-20.28415240805785, 9.683736264787921]}}, {"type": "Feature", "properties": {"norad_id": 31424, "name": "FENGYUN 1C DEB", "group": "fengyun-1c-debris", "lat": 63.95567704330733, "lon": -118.34008553704564, "alt_km": 813.2546362449684, "timestamp": "2025-12-26T17:24:55.001726+00:00", "meta": {"OBJECT_NAME": "FENGYUN 1C DEB", "OBJECT_ID": "1999-025BTL", "EPOCH": "2025-12-26T01:32:08.802528", "MEAN_MOTION": 14.08369117, "ECCENTRICITY": 0.00942959, "INCLINATION": 98.4797, "RA_OF_ASC_NODE": 43.2634, "ARG_OF_PERICENTER": 67.8382, "MEAN_ANOMALY": 293.2764, "EPHEMERIS_TYPE": 0, "CLASSIFICATION_TYPE": "U", "NORAD_CAT_ID": 31424, "ELEMENT_SET_NO": 999, "REV_AT_EPOCH": 63358, "BSTAR": 0.00025728605, "MEAN_MOTION_DOT": 4.19e-06, "MEAN_MOTION_DDOT": 0}, "tle": {"line1": "1 31424U 99025BTL 25360.06399077  .00000419  00000+0  25729-3 0  9997", "line2": "2 31424  98.4797  43.2634 0094295  67.8382 293.2764 14.08369117633583"}}, "geometry": {"type": "Point", "coordinates": [-118.34008553704564, 63.95567704330733]}}, {"type": "Feature", "properties": {"norad_id": 31426, "name": "FENGYUN 1C DEB", "group": "fengyun-1c-debris", "lat": 77.16642388651627, "lon": 18.79646771408546, "alt_km": 758.0029144321015, "timestamp": "2025-12-26T17:24:55.001736+00:00", "meta": {"OBJECT_NAME": "FENGYUN 1C DEB", "OBJECT_ID": "1999-025BTN", "EPOCH": "2025-12-24T16:38:35.634336", "MEAN_MOTION": 13.9016565, "ECCENTRICITY": 0.03242634, "INCLINATION": 98.5802, "RA_OF_ASC_NODE": 155.4094, "ARG_OF_PERICENTER": 153.1493, "MEAN_ANOMALY": 224.4865, "EPHEMERIS_TYPE": 0, "CLASSIFICATION_TYPE": "U", "NORAD_CAT_ID": 31426, "ELEMENT_SET_NO": 999, "REV_AT_EPOCH": 93739, "BSTAR": 0.0020398597, "MEAN_MOTION_DOT": 3.82e-05, "MEAN_MOTION_DDOT": 0}, "tle": {"line1": "1 31426U 99025BTN 25358.69346799  .00003820  00000+0  20399-2 0  9994", "line2": "2 31426  98.5802 155.4094 0324263 153.1493 224.4865 13.90165650937392"}}, "geometry": {"type": "Point", "coordinates": [18.79646771408546, 77.16642388651627]}}, {"type": "Feature", "properties": {"norad_id": 31427, "name": "FENGYUN 1C DEB", "group": "fengyun-1c-debris", "lat": -69.12139738183946, "lon": -93.1859917020638, "alt_km": 701.1467240067377, "timestamp": "2025-12-26T17:24:55.001746+00:00", "meta": {"OBJECT_NAME": "FENGYUN 1C DEB", "OBJECT_ID": "1999-025BTP", "EPOCH": "2025-12-26T06:23:25.729728", "MEAN_MOTION": 14.58940293, "ECCENTRICITY": 0.00312145, "INCLINATION": 98.6686, "RA_OF_ASC_NODE": 109.9109, "ARG_OF_PERICENTER": 335.5462, "MEAN_ANOMALY": 24.4254, "EPHEMERIS_TYPE": 0, "CLASSIFICATION_TYPE": "U", "NORAD_CAT_ID": 31427, "ELEMENT_SET_NO": 999, "REV_AT_EPOCH": 97078, "BSTAR": 0.0023349889, "MEAN_MOTION_DOT": 0.00010986, "MEAN_MOTION_DDOT": 0}, "tle": {"line1": "1 31427U 99025BTP 25360.26627002  .00010986  00000+0  23350-2 0  9991", "line2": "2 31427  98.6686 109.9109 0031214 335.5462  24.4254 14.58940293970787"}}, "geometry": {"type": "Point", "coordinates": [-93.1859917020638, -69.12139738183946]}}]}